start=new Date('2023-03-16T00:00:00.000Z').valueOf();
sats=[{"DECAY_DATE":null,"PERIOD":"95.437","RA_OF_ASC_NODE":"286.5311","FILE":"3861599","NORAD_CAT_ID":"53528","INCLINATION":"53.2151","GP_ID":"228211192","MEAN_MOTION_DOT":"0.00022372","ELEMENT_SET_NO":"999","ARG_OF_PERICENTER":"73.0699","SEMIMAJOR_AXIS":"6917.835","ECCENTRICITY":"0.00008720","TIME_SYSTEM":"UTC","CLASSIFICATION_TYPE":"U","REV_AT_EPOCH":"3163","PERIAPSIS":"539.097","SITE":"AFETR","EPHEMERIS_TYPE":"0","OBJECT_TYPE":"PAYLOAD","MEAN_ELEMENT_THEORY":"SGP4","CENTER_NAME":"EARTH","RCS_SIZE":"LARGE","TLE_LINE1":"1 53528U 22101B   23074.86540670  .00022372  00000-0  14187-2 0  9990","OBJECT_ID":"2022-101B","MEAN_MOTION":"15.08854823","COUNTRY_CODE":"US","REF_FRAME":"TEME","EPOCH":"2023-03-15T20:46:11.138880","TLE_LINE2":"2 53528  53.2151 286.5311 0000872  73.0699 287.0389 15.08854823 31633","APOAPSIS":"540.303","LAUNCH_DATE":"2022-08-19","OBJECT_NAME":"STARLINK-4503","MEAN_MOTION_DDOT":"0.0000000000000","MEAN_ANOMALY":"287.0389","BSTAR":"0.00141870000000"},{"TLE_LINE1":"1 53529U 22101C   23074.85804515  .00004473  00000-0  29883-3 0  9993","OBJECT_TYPE":"PAYLOAD","MEAN_ELEMENT_THEORY":"SGP4","RCS_SIZE":"LARGE","CENTER_NAME":"EARTH","EPHEMERIS_TYPE":"0","SITE":"AFETR","PERIAPSIS":"538.729","MEAN_MOTION_DDOT":"0.0000000000000","BSTAR":"0.00029883000000","MEAN_ANOMALY":"289.8420","TLE_LINE2":"2 53529  53.2154 286.5666 0001412  70.2724 289.8420 15.08852931 31633","OBJECT_NAME":"STARLINK-4478","LAUNCH_DATE":"2022-08-19","APOAPSIS":"540.683","EPOCH":"2023-03-15T20:35:35.100960","OBJECT_ID":"2022-101C","MEAN_MOTION":"15.08852931","COUNTRY_CODE":"US","REF_FRAME":"TEME","GP_ID":"228209940","INCLINATION":"53.2154","NORAD_CAT_ID":"53529","FILE":"3861599","PERIOD":"95.437","RA_OF_ASC_NODE":"286.5666","DECAY_DATE":null,"CLASSIFICATION_TYPE":"U","REV_AT_EPOCH":"3163","TIME_SYSTEM":"UTC","ECCENTRICITY":"0.00014120","ARG_OF_PERICENTER":"70.2724","SEMIMAJOR_AXIS":"6917.841","MEAN_MOTION_DOT":"0.00004473","ELEMENT_SET_NO":"999"},{"REV_AT_EPOCH":"3163","CLASSIFICATION_TYPE":"U","TIME_SYSTEM":"UTC","ECCENTRICITY":"0.00012700","ARG_OF_PERICENTER":"75.2980","SEMIMAJOR_AXIS":"6917.848","ELEMENT_SET_NO":"999","MEAN_MOTION_DOT":"0.00003137","GP_ID":"228209691","INCLINATION":"53.2163","NORAD_CAT_ID":"53530","FILE":"3861599","RA_OF_ASC_NODE":"286.5917","PERIOD":"95.437","DECAY_DATE":null,"BSTAR":"0.00021504000000","MEAN_ANOMALY":"284.8152","MEAN_MOTION_DDOT":"0.0000000000000","LAUNCH_DATE":"2022-08-19","OBJECT_NAME":"STARLINK-4482","APOAPSIS":"540.592","TLE_LINE2":"2 53530  53.2163 286.5917 0001270  75.2980 284.8152 15.08850524 31638","EPOCH":"2023-03-15T20:26:22.162560","COUNTRY_CODE":"US","REF_FRAME":"TEME","OBJECT_ID":"2022-101D","MEAN_MOTION":"15.08850524","TLE_LINE1":"1 53530U 22101D   23074.85164540  .00003137  00000-0  21504-3 0  9990","CENTER_NAME":"EARTH","RCS_SIZE":"LARGE","OBJECT_TYPE":"PAYLOAD","MEAN_ELEMENT_THEORY":"SGP4","EPHEMERIS_TYPE":"0","SITE":"AFETR","PERIAPSIS":"538.835"},{"CLASSIFICATION_TYPE":"U","REV_AT_EPOCH":"3163","TIME_SYSTEM":"UTC","ECCENTRICITY":"0.00009470","SEMIMAJOR_AXIS":"6917.871","ARG_OF_PERICENTER":"108.6606","MEAN_MOTION_DOT":"0.00007675","ELEMENT_SET_NO":"999","GP_ID":"228210942","INCLINATION":"53.2153","FILE":"3861599","NORAD_CAT_ID":"53531","PERIOD":"95.437","RA_OF_ASC_NODE":"286.5823","DECAY_DATE":null,"MEAN_MOTION_DDOT":"0.0000000000000","BSTAR":"0.00049976000000","MEAN_ANOMALY":"251.4489","TLE_LINE2":"2 53531  53.2153 286.5823 0000947 108.6606 251.4489 15.08843153 31633","OBJECT_NAME":"STARLINK-4487","LAUNCH_DATE":"2022-08-19","APOAPSIS":"540.391","EPOCH":"2023-03-15T20:30:18.057024","OBJECT_ID":"2022-101E","MEAN_MOTION":"15.08843153","REF_FRAME":"TEME","COUNTRY_CODE":"US","TLE_LINE1":"1 53531U 22101E   23074.85437566  .00007675  00000-0  49976-3 0  9996","MEAN_ELEMENT_THEORY":"SGP4","OBJECT_TYPE":"PAYLOAD","RCS_SIZE":"LARGE","CENTER_NAME":"EARTH","EPHEMERIS_TYPE":"0","SITE":"AFETR","PERIAPSIS":"539.081"},{"TLE_LINE1":"1 53532U 22101F   23074.02636932  .00019069  00000-0  12121-2 0  9995","OBJECT_TYPE":"PAYLOAD","MEAN_ELEMENT_THEORY":"SGP4","CENTER_NAME":"EARTH","RCS_SIZE":"LARGE","PERIAPSIS":"538.966","SITE":"AFETR","EPHEMERIS_TYPE":"0","MEAN_MOTION_DDOT":"0.0000000000000","MEAN_ANOMALY":"271.3051","BSTAR":"0.00121210000000","TLE_LINE2":"2 53532  53.2149 290.3007 0001010  88.8056 271.3051 15.08866409 31518","APOAPSIS":"540.363","OBJECT_NAME":"STARLINK-4483","LAUNCH_DATE":"2022-08-19","EPOCH":"2023-03-15T00:37:58.309248","OBJECT_ID":"2022-101F","MEAN_MOTION":"15.08866409","REF_FRAME":"TEME","COUNTRY_CODE":"US","GP_ID":"228152547","FILE":"3861350","NORAD_CAT_ID":"53532","INCLINATION":"53.2149","PERIOD":"95.436","RA_OF_ASC_NODE":"290.3007","DECAY_DATE":null,"CLASSIFICATION_TYPE":"U","REV_AT_EPOCH":"3151","ECCENTRICITY":"0.00010100","TIME_SYSTEM":"UTC","ARG_OF_PERICENTER":"88.8056","SEMIMAJOR_AXIS":"6917.800","MEAN_MOTION_DOT":"0.00019069","ELEMENT_SET_NO":"999"},{"TLE_LINE2":"2 53533  53.2157 286.4482 0001864  98.8516 261.2687 15.08856687 31644","APOAPSIS":"540.984","LAUNCH_DATE":"2022-08-19","OBJECT_NAME":"STARLINK-4493","MEAN_MOTION_DDOT":"0.0000000000000","MEAN_ANOMALY":"261.2687","BSTAR":"0.00030928000000","OBJECT_ID":"2022-101G","MEAN_MOTION":"15.08856687","COUNTRY_CODE":"US","REF_FRAME":"TEME","EPOCH":"2023-03-15T21:14:03.444576","TLE_LINE1":"1 53533U 22101G   23074.88476209  .00004640  00000-0  30928-3 0  9994","SITE":"AFETR","PERIAPSIS":"538.405","EPHEMERIS_TYPE":"0","OBJECT_TYPE":"PAYLOAD","MEAN_ELEMENT_THEORY":"SGP4","CENTER_NAME":"EARTH","RCS_SIZE":"LARGE","ECCENTRICITY":"0.00018640","TIME_SYSTEM":"UTC","CLASSIFICATION_TYPE":"U","REV_AT_EPOCH":"3164","MEAN_MOTION_DOT":"0.00004640","ELEMENT_SET_NO":"999","SEMIMAJOR_AXIS":"6917.829","ARG_OF_PERICENTER":"98.8516","NORAD_CAT_ID":"53533","FILE":"3861599","INCLINATION":"53.2157","GP_ID":"228209441","DECAY_DATE":null,"PERIOD":"95.436","RA_OF_ASC_NODE":"286.4482"},{"TLE_LINE1":"1 53534U 22101H   23074.87276292  .00012426  00000-0  79686-3 0  9999","CENTER_NAME":"EARTH","RCS_SIZE":"LARGE","MEAN_ELEMENT_THEORY":"SGP4","OBJECT_TYPE":"PAYLOAD","EPHEMERIS_TYPE":"0","SITE":"AFETR","PERIAPSIS":"538.561","BSTAR":"0.00079686000000","MEAN_ANOMALY":"272.0679","MEAN_MOTION_DDOT":"0.0000000000000","OBJECT_NAME":"STARLINK-4488","LAUNCH_DATE":"2022-08-19","APOAPSIS":"540.772","TLE_LINE2":"2 53534  53.2137 286.5012 0001598  88.0496 272.0679 15.08865815 31649","EPOCH":"2023-03-15T20:56:46.716288","COUNTRY_CODE":"US","REF_FRAME":"TEME","OBJECT_ID":"2022-101H","MEAN_MOTION":"15.08865815","GP_ID":"228210191","INCLINATION":"53.2137","NORAD_CAT_ID":"53534","FILE":"3861599","RA_OF_ASC_NODE":"286.5012","PERIOD":"95.436","DECAY_DATE":null,"REV_AT_EPOCH":"3164","CLASSIFICATION_TYPE":"U","TIME_SYSTEM":"UTC","ECCENTRICITY":"0.00015980","ARG_OF_PERICENTER":"88.0496","SEMIMAJOR_AXIS":"6917.801","ELEMENT_SET_NO":"999","MEAN_MOTION_DOT":"0.00012426"},{"EPHEMERIS_TYPE":"0","SITE":"AFETR","PERIAPSIS":"539.275","OBJECT_TYPE":"PAYLOAD","MEAN_ELEMENT_THEORY":"SGP4","RCS_SIZE":"LARGE","CENTER_NAME":"EARTH","TLE_LINE1":"1 53535U 22101J   23074.88012607  .00001716  00000-0  12583-3 0  9992","MEAN_MOTION":"15.08845313","OBJECT_ID":"2022-101J","COUNTRY_CODE":"US","REF_FRAME":"TEME","EPOCH":"2023-03-15T21:07:22.892448","TLE_LINE2":"2 53535  53.2156 286.4693 0000656  81.8342 278.2724 15.08845313 31640","LAUNCH_DATE":"2022-08-19","OBJECT_NAME":"STARLINK-4138","APOAPSIS":"540.183","MEAN_MOTION_DDOT":"0.0000000000000","BSTAR":"0.00012583000000","MEAN_ANOMALY":"278.2724","DECAY_DATE":null,"PERIOD":"95.437","RA_OF_ASC_NODE":"286.4693","INCLINATION":"53.2156","FILE":"3861599","NORAD_CAT_ID":"53535","GP_ID":"228210443","MEAN_MOTION_DOT":"0.00001716","ELEMENT_SET_NO":"999","SEMIMAJOR_AXIS":"6917.864","ARG_OF_PERICENTER":"81.8342","TIME_SYSTEM":"UTC","ECCENTRICITY":"0.00006560","CLASSIFICATION_TYPE":"U","REV_AT_EPOCH":"3164"},{"DECAY_DATE":null,"RA_OF_ASC_NODE":"276.5643","PERIOD":"95.437","INCLINATION":"53.2126","NORAD_CAT_ID":"53536","FILE":"3861599","GP_ID":"228211193","ELEMENT_SET_NO":"999","MEAN_MOTION_DOT":"-0.00001896","ARG_OF_PERICENTER":"94.6612","SEMIMAJOR_AXIS":"6917.876","TIME_SYSTEM":"UTC","ECCENTRICITY":"0.00011050","REV_AT_EPOCH":"3177","CLASSIFICATION_TYPE":"U","EPHEMERIS_TYPE":"0","PERIAPSIS":"538.977","SITE":"AFETR","CENTER_NAME":"EARTH","RCS_SIZE":"LARGE","MEAN_ELEMENT_THEORY":"SGP4","OBJECT_TYPE":"PAYLOAD","TLE_LINE1":"1 53536U 22101K   23074.86633305 -.00001896  00000-0 -10106-3 0  9995","REF_FRAME":"TEME","COUNTRY_CODE":"US","MEAN_MOTION":"15.08841421","OBJECT_ID":"2022-101K","EPOCH":"2023-03-15T20:47:31.175520","OBJECT_NAME":"STARLINK-4053","LAUNCH_DATE":"2022-08-19","APOAPSIS":"540.505","TLE_LINE2":"2 53536  53.2126 276.5643 0001105  94.6612 265.4506 15.08841421 31771","BSTAR":"-0.00010106000000","MEAN_ANOMALY":"265.4506","MEAN_MOTION_DDOT":"0.0000000000000"},{"ELEMENT_SET_NO":"999","MEAN_MOTION_DOT":"0.00004886","ARG_OF_PERICENTER":"79.7880","SEMIMAJOR_AXIS":"6917.843","TIME_SYSTEM":"UTC","ECCENTRICITY":"0.00011410","REV_AT_EPOCH":"3164","CLASSIFICATION_TYPE":"U","DECAY_DATE":null,"RA_OF_ASC_NODE":"286.4511","PERIOD":"95.437","INCLINATION":"53.2154","NORAD_CAT_ID":"53537","FILE":"3861599","GP_ID":"228209941","COUNTRY_CODE":"US","REF_FRAME":"TEME","MEAN_MOTION":"15.08852278","OBJECT_ID":"2022-101L","EPOCH":"2023-03-15T21:12:40.891968","OBJECT_NAME":"STARLINK-4120","LAUNCH_DATE":"2022-08-19","APOAPSIS":"540.497","TLE_LINE2":"2 53537  53.2154 286.4511 0001141  79.7880 280.3240 15.08852278 31647","BSTAR":"0.00032478000000","MEAN_ANOMALY":"280.3240","MEAN_MOTION_DDOT":"0.0000000000000","EPHEMERIS_TYPE":"0","SITE":"AFETR","PERIAPSIS":"538.919","RCS_SIZE":"LARGE","CENTER_NAME":"EARTH","OBJECT_TYPE":"PAYLOAD","MEAN_ELEMENT_THEORY":"SGP4","TLE_LINE1":"1 53537U 22101L   23074.88380662  .00004886  00000-0  32478-3 0  9999"}];
